{
  "type": "FeatureCollection",
  "features": [
    {
      "type": "Feature",
      "properties": {
        "norad_id": 29914,
        "name": "FENGYUN 1C DEB",
        "group": "fengyun-1c-debris",
        "lat": -39.13822458626058,
        "lon": -172.36886895771116,
        "alt_km": 895.4732884754694,
        "timestamp": "2025-12-12T07:43:20.785542+00:00",
        "meta_object_name": "FENGYUN 1C DEB",
        "meta_object_id": "1999-025HL",
        "meta_epoch": "2025-12-12T00:08:29.296896",
        "meta_mean_motion": 14.03132418,
        "meta_eccentricity": 0.00365834,
        "meta_inclination": 98.8448,
        "meta_ra_of_asc_node": 14.6038,
        "meta_arg_of_pericenter": 117.0082,
        "meta_mean_anomaly": 307.5064,
        "meta_ephemeris_type": 0,
        "meta_classification_type": "U",
        "meta_norad_cat_id": 29914,
        "meta_element_set_no": 999,
        "meta_rev_at_epoch": 96776,
        "meta_bstar": 0.00012252142,
        "meta_mean_motion_dot": 1.49e-06,
        "meta_mean_motion_ddot": 0,
        "tle_line1": "1 29914U 99025HL  25346.00589464  .00000149  00000+0  12252-3 0  9994",
        "tle_line2": "2 29914  98.8448  14.6038 0036583 117.0082 307.5064 14.03132418967761"
      },
      "geometry": {
        "type": "Point",
        "coordinates": [
          -172.36886895771116,
          -39.13822458626058
        ]
      }
    },
    {
      "type": "Feature",
      "properties": {
        "norad_id": 29916,
        "name": "FENGYUN 1C DEB",
        "group": "fengyun-1c-debris",
        "lat": -67.50678258850171,
        "lon": 28.62185481013159,
        "alt_km": 879.9554937358362,
        "timestamp": "2025-12-12T07:43:20.785552+00:00",
        "meta_object_name": "FENGYUN 1C DEB",
        "meta_object_id": "1999-025HN",
        "meta_epoch": "2025-12-11T18:14:16.924704",
        "meta_mean_motion": 13.56982314,
        "meta_eccentricity": 0.02712028,
        "meta_inclination": 99.1949,
        "meta_ra_of_asc_node": 5.0694,
        "meta_arg_of_pericenter": 261.0241,
        "meta_mean_anomaly": 164.7797,
        "meta_ephemeris_type": 0,
        "meta_classification_type": "U",
        "meta_norad_cat_id": 29916,
        "meta_element_set_no": 999,
        "meta_rev_at_epoch": 93439,
        "meta_bstar": 0.00093683341,
        "meta_mean_motion_dot": 8.02e-06,
        "meta_mean_motion_ddot": 0,
        "tle_line1": "1 29916U 99025HN  25345.75991811  .00000802  00000+0  93683-3 0  9993",
        "tle_line2": "2 29916  99.1949   5.0694 0271202 261.0241 164.7797 13.56982314934395"
      },
      "geometry": {
        "type": "Point",
        "coordinates": [
          28.62185481013159,
          -67.50678258850171
        ]
      }
    },
    {
      "type": "Feature",
      "properties": {
        "norad_id": 29917,
        "name": "FENGYUN 1C DEB",
        "group": "fengyun-1c-debris",
        "lat": -2.5678078809923757,
        "lon": -151.6075348443105,
        "alt_km": 1100.0622216252132,
        "timestamp": "2025-12-12T07:43:20.785563+00:00",
        "meta_object_name": "FENGYUN 1C DEB",
        "meta_object_id": "1999-025HP",
        "meta_epoch": "2025-12-11T21:49:47.629056",
        "meta_mean_motion": 13.70407602,
        "meta_eccentricity": 0.02227936,
        "meta_inclination": 98.8765,
        "meta_ra_of_asc_node": 207.6101,
        "meta_arg_of_pericenter": 126.5586,
        "meta_mean_anomaly": 0.5556,
        "meta_ephemeris_type": 0,
        "meta_classification_type": "U",
        "meta_norad_cat_id": 29917,
        "meta_element_set_no": 999,
        "meta_rev_at_epoch": 94119,
        "meta_bstar": 0.0014667498,
        "meta_mean_motion_dot": 1.508e-05,
        "meta_mean_motion_ddot": 0,
        "tle_line1": "1 29917U 99025HP  25345.90957904  .00001508  00000+0  14667-2 0  9994",
        "tle_line2": "2 29917  98.8765 207.6101 0222793 126.5586   0.5556 13.70407602941193"
      },
      "geometry": {
        "type": "Point",
        "coordinates": [
          -151.6075348443105,
          -2.5678078809923757
        ]
      }
    },
    {
      "type": "Feature",
      "properties": {
        "norad_id": 29918,
        "name": "FENGYUN 1C DEB",
        "group": "fengyun-1c-debris",
        "lat": 80.71194295090378,
        "lon": -38.86259209642633,
        "alt_km": 778.7830222376315,
        "timestamp": "2025-12-12T07:43:20.785574+00:00",
        "meta_object_name": "FENGYUN 1C DEB",
        "meta_object_id": "1999-025HQ",
        "meta_epoch": "2025-12-11T20:04:58.514304",
        "meta_mean_motion": 14.33588061,
        "meta_eccentricity": 0.00128393,
        "meta_inclination": 98.8542,
        "meta_ra_of_asc_node": 68.2524,
        "meta_arg_of_pericenter": 319.2663,
        "meta_mean_anomaly": 151.8986,
        "meta_ephemeris_type": 0,
        "meta_classification_type": "U",
        "meta_norad_cat_id": 29918,
        "meta_element_set_no": 999,
        "meta_rev_at_epoch": 97781,
        "meta_bstar": 0.0023090381,
        "meta_mean_motion_dot": 6.358e-05,
        "meta_mean_motion_ddot": 0,
        "tle_line1": "1 29918U 99025HQ  25345.83678836  .00006358  00000+0  23090-2 0  9999",
        "tle_line2": "2 29918  98.8542  68.2524 0012839 319.2663 151.8986 14.33588061977816"
      },
      "geometry": {
        "type": "Point",
        "coordinates": [
          -38.86259209642633,
          80.71194295090378
        ]
      }
    },
    {
      "type": "Feature",
      "properties": {
        "norad_id": 29919,
        "name": "FENGYUN 1C DEB",
        "group": "fengyun-1c-debris",
        "lat": 63.28139059448708,
        "lon": -21.972918777645525,
        "alt_km": 1004.0249816150472,
        "timestamp": "2025-12-12T07:43:20.785585+00:00",
        "meta_object_name": "FENGYUN 1C DEB",
        "meta_object_id": "1999-025HR",
        "meta_epoch": "2025-12-11T23:05:21.736032",
        "meta_mean_motion": 13.85122682,
        "meta_eccentricity": 0.01374024,
        "meta_inclination": 98.4791,
        "meta_ra_of_asc_node": 140.4631,
        "meta_arg_of_pericenter": 345.9463,
        "meta_mean_anomaly": 135.5379,
        "meta_ephemeris_type": 0,
        "meta_classification_type": "U",
        "meta_norad_cat_id": 29919,
        "meta_element_set_no": 999,
        "meta_rev_at_epoch": 95524,
        "meta_bstar": 0.00024342539,
        "meta_mean_motion_dot": 2.58e-06,
        "meta_mean_motion_ddot": 0,
        "tle_line1": "1 29919U 99025HR  25345.96205713  .00000258  00000+0  24343-3 0  9990",
        "tle_line2": "2 29919  98.4791 140.4631 0137402 345.9463 135.5379 13.85122682955246"
      },
      "geometry": {
        "type": "Point",
        "coordinates": [
          -21.972918777645525,
          63.28139059448708
        ]
      }
    },
    {
      "type": "Feature",
      "properties": {
        "norad_id": 29920,
        "name": "FENGYUN 1C DEB",
        "group": "fengyun-1c-debris",
        "lat": -36.43061251086762,
        "lon": -152.8959280285164,
        "alt_km": 818.4181766907877,
        "timestamp": "2025-12-12T07:43:20.785595+00:00",
        "meta_object_name": "FENGYUN 1C DEB",
        "meta_object_id": "1999-025HS",
        "meta_epoch": "2025-12-11T13:04:37.493760",
        "meta_mean_motion": 14.03650614,
        "meta_eccentricity": 0.01254176,
        "meta_inclination": 98.3912,
        "meta_ra_of_asc_node": 200.1323,
        "meta_arg_of_pericenter": 284.2271,
        "meta_mean_anomaly": 74.4994,
        "meta_ephemeris_type": 0,
        "meta_classification_type": "U",
        "meta_norad_cat_id": 29920,
        "meta_element_set_no": 999,
        "meta_rev_at_epoch": 96271,
        "meta_bstar": 0.0018726775,
        "meta_mean_motion_dot": 3.115e-05,
        "meta_mean_motion_ddot": 0,
        "tle_line1": "1 29920U 99025HS  25345.54487840  .00003115  00000+0  18727-2 0  9992",
        "tle_line2": "2 29920  98.3912 200.1323 0125417 284.2271  74.4994 14.03650614962715"
      },
      "geometry": {
        "type": "Point",
        "coordinates": [
          -152.8959280285164,
          -36.43061251086762
        ]
      }
    },
    {
      "type": "Feature",
      "properties": {
        "norad_id": 29921,
        "name": "FENGYUN 1C DEB",
        "group": "fengyun-1c-debris",
        "lat": 26.02548712703994,
        "lon": 176.78166485491704,
        "alt_km": 865.4597398047281,
        "timestamp": "2025-12-12T07:43:20.785605+00:00",
        "meta_object_name": "FENGYUN 1C DEB",
        "meta_object_id": "1999-025HT",
        "meta_epoch": "2025-12-12T00:18:14.395104",
        "meta_mean_motion": 14.06642176,
        "meta_eccentricity": 0.00464353,
        "meta_inclination": 98.7869,
        "meta_ra_of_asc_node": 352.1502,
        "meta_arg_of_pericenter": 71.7429,
        "meta_mean_anomaly": 316.8756,
        "meta_ephemeris_type": 0,
        "meta_classification_type": "U",
        "meta_norad_cat_id": 29921,
        "meta_element_set_no": 999,
        "meta_rev_at_epoch": 96866,
        "meta_bstar": 0.00056427941,
        "meta_mean_motion_dot": 9.03e-06,
        "meta_mean_motion_ddot": 0,
        "tle_line1": "1 29921U 99025HT  25346.01266661  .00000903  00000+0  56428-3 0  9995",
        "tle_line2": "2 29921  98.7869 352.1502 0046435  71.7429 316.8756 14.06642176968660"
      },
      "geometry": {
        "type": "Point",
        "coordinates": [
          176.78166485491704,
          26.02548712703994
        ]
      }
    }
  ]
}